GLOBALSTAR M067         
1 32263U 07048A   24145.31379059 -.00000058  00000+0  29035-3 0  9993
2 32263  51.9727  93.7814 0000484 252.1105 273.8576 12.40645725761214
GLOBALSTAR M070         
1 32264U 07048B   24145.43771288 -.00000044  00000+0  33239-3 0  9993
2 32264  51.9743 232.7678 0000201 117.0377 323.9552 12.62293130764579
GLOBALSTAR M066         
1 32265U 07048C   24145.25480022 -.00000096  00000+0  41276-4 0  9995
2 32265  51.9674  95.2994 0000377  30.4968 117.0075 12.62262482766811
GLOBALSTAR M068         
1 32266U 07048D   24145.60572978 -.00000051  00000+0  29395-3 0  9995
2 32266  51.9906  46.7477 0001397  29.5278  41.9764 12.62789817768462
GLOBALSTAR M079         
1 37188U 10054A   24145.46690997 -.00000062  00000+0  23071-3 0  9997
2 37188  52.0038 243.1129 0000740 143.7610 296.9763 12.62270344627369
GLOBALSTAR M074         
1 37189U 10054B   24145.57743363 -.00000060  00000+0  24673-3 0  9993
2 37189  52.0013 242.1601 0000482 132.8884 329.5478 12.62268979627987
GLOBALSTAR M076         
1 37190U 10054C   24145.60445701 -.00000035  00000+0  38233-3 0  9993
2 37190  52.0022 242.2105 0000608 173.6084 293.5858 12.62261472627707
GLOBALSTAR M077         
1 37191U 10054D   24145.34821814 -.00000059  00000+0  25234-3 0  9991
2 37191  52.0058 199.7379 0000188 160.0334 280.6859 12.62273627628048
